{
"type": "FeatureCollection",
"name": "rbd_boundaries",
"crs": { "type": "name", "properties": { "name": "urn:ogc:def:crs:OGC:1.3:CRS84" } },
"features": [
{ "type": "Feature", "properties": { "rbd_name": "South West" }, "geometry": { "type": "MultiPolygon", "coordinates": [ [ [ [ -3.09692977106764, 51.363805873482121 ], [ -3.012723957049256, 51.322749189029047 ], [ -3.021739168923324, 51.266677106561509 ], [ -3.011078419682719, 51.251910819657532 ], [ -2.94496440133376, 51.253896883551107 ], [ -2.91812781055166, 51.273443367971446 ], [ -2.846986608999888, 51.263638975547408 ], [ -2.874410659303182, 51.236011458147097 ], [ -2.868131878057065, 51.20683383551583 ], [ -2.795305610569979, 51.217242933665133 ], [ -2.704815818203073, 51.198490174193331 ], [ -2.658452571055943, 51.209101294887844 ], [ -2.640903126580437, 51.233926723565482 ], [ -2.583486885031841, 51.236338557298126 ], [ -2.504560779448827, 51.208967059753505 ], [ -2.498355548771241, 51.178870431955282 ], [ -2.457674315126143, 51.188028748283067 ], [ -2.379276725251013, 51.137504364559547 ], [ -2.342222994823729, 51.131324291116663 ], [ -2.248569244239104, 51.151343522809327 ], [ -2.252330092141129, 51.185501715219061 ], [ -2.226030275783711, 51.220174506073782 ], [ -2.140874537316868, 51.233349738450123 ], [ -2.143820535195511, 51.259419221034847 ], [ -2.105836656664372, 51.256315998478428 ], [ -2.079359826900685, 51.275666101828662 ], [ -2.027021370709359, 51.254559113506673 ], [ -1.96468230425575, 51.263102707705485 ], [ -1.951034635312286, 51.293666633374734 ], [ -1.923930786479227, 51.299497700365315 ], [ -1.921736631977308, 51.324673166833179 ], [ -1.980407666765348, 51.357968491628654 ], [ -1.996921959583868, 51.382695500393019 ], [ -1.986141924243932, 51.393034328077 ], [ -1.841209278368369, 51.371351262665712 ], [ -1.660196674300475, 51.37186573429787 ], [ -1.672513236472997, 51.357064462445415 ], [ -1.593208413950578, 51.311771957699513 ], [ -1.646654083389868, 51.264738078646786 ], [ -1.659165318576068, 51.220265356502331 ], [ -1.62590647289433, 51.17205668912932 ], [ -1.662681782771581, 51.130805144780325 ], [ -1.711407789851276, 51.108904832596295 ], [ -1.742432844346573, 51.052326779861296 ], [ -1.702732998303901, 51.013646439575496 ], [ -1.718668624551507, 50.971422201518955 ], [ -1.651990841623871, 50.936623929686775 ], [ -1.651440339762891, 50.915038854635498 ], [ -1.727190965083229, 50.853561741737771 ], [ -1.713175226347504, 50.822504009139244 ], [ -1.729619904501287, 50.801945696055917 ], [ -1.694241158165803, 50.787020671972151 ], [ -1.701425559106472, 50.772651100724794 ], [ -1.687182673763409, 50.76299168958689 ], [ -1.70289388161884, 50.736842021572315 ], [ -1.685667299041451, 50.625065562939717 ], [ -2.054607185921844, 50.56040017270351 ], [ -2.168048305183889, 50.595871075915063 ], [ -2.259973944279433, 50.597329786159804 ], [ -2.46149497761452, 50.496680179679153 ], [ -2.486178693822818, 50.509691361224576 ], [ -2.496260134516274, 50.56788542495913 ], [ -2.618868223664149, 50.635127590067682 ], [ -2.794004655350672, 50.698274603154076 ], [ -2.910300565234693, 50.709183715106569 ], [ -3.092873717555686, 50.668584556869128 ], [ -3.227305107399338, 50.661375067733836 ], [ -3.29346325761997, 50.613848084141161 ], [ -3.43259118230008, 50.572924846747625 ], [ -3.485202901122602, 50.503583105552309 ], [ -3.445689752096069, 50.46037112589584 ], [ -3.460310411137193, 50.388728001021285 ], [ -3.502414110185325, 50.325624863247782 ], [ -3.618709032830252, 50.284696749813818 ], [ -3.628746101415654, 50.250765264649964 ], [ -3.614102654579526, 50.217938210150486 ], [ -3.631916735331748, 50.202803565500524 ], [ -3.722100372895581, 50.185243986023274 ], [ -3.798582614285385, 50.193775889972315 ], [ -3.880303119806889, 50.222056867688707 ], [ -3.916078065594346, 50.263420165585323 ], [ -3.962926204744126, 50.282702338114127 ], [ -4.035466977801534, 50.275209139980319 ], [ -4.231124711063803, 50.295459775000076 ], [ -4.298794724628521, 50.339888166023364 ], [ -4.376652169556473, 50.341711930744097 ], [ -4.436994520464024, 50.317306061175174 ], [ -4.638284307710302, 50.304563188889077 ], [ -4.719807422002749, 50.263356203782948 ], [ -4.784435181411664, 50.206106721122318 ], [ -4.85794041442629, 50.20326111529932 ], [ -4.942231069430187, 50.163372878373366 ], [ -4.995205602169965, 50.118417156664094 ], [ -5.02502909047493, 50.036277762841486 ], [ -5.197059496590873, 49.936952854306149 ], [ -5.269491402168007, 49.96565466992535 ], [ -5.314149480354203, 50.050744622082874 ], [ -5.343353508437663, 50.067940078421337 ], [ -5.500558924008325, 50.073253341337818 ], [ -5.562780145035506, 50.037105365774913 ], [ -5.673868877565077, 50.006426500676454 ], [ -5.77322201229898, 50.062522937235791 ], [ -5.747920186519702, 50.128598341286946 ], [ -5.689333774076467, 50.185449581994916 ], [ -5.562673032387709, 50.230331652172943 ], [ -5.477184933124703, 50.240774162227432 ], [ -5.428932210090208, 50.270212208510891 ], [ -5.344501825667196, 50.26501001034962 ], [ -5.277536384025034, 50.296330783611452 ], [ -5.256433832917827, 50.343089823902687 ], [ -5.202395965379974, 50.362030302080314 ], [ -5.171544062974203, 50.41662912760345 ], [ -5.074158287643424, 50.463553520184959 ], [ -5.083557669157889, 50.556932315356406 ], [ -4.959817943973635, 50.60883544774795 ], [ -4.817349055513903, 50.626689198105893 ], [ -4.786377360921521, 50.68097251699281 ], [ -4.70957516940243, 50.713303769602717 ], [ -4.677889964204613, 50.751049374109058 ], [ -4.60246830921779, 50.788839071288422 ], [ -4.587043829146338, 50.828118888353409 ], [ -4.600275108979412, 50.906577862487929 ], [ -4.548694718085208, 51.036350480271913 ], [ -4.465263397240225, 51.039155151300363 ], [ -4.354308133580695, 51.012457062562433 ], [ -4.28723092852842, 51.047536152920529 ], [ -4.269047152197086, 51.106156731720276 ], [ -4.290407413149651, 51.145144786570675 ], [ -4.269418294995139, 51.19188432479244 ], [ -4.313883233021039, 51.370372212652462 ], [ -3.958315928769714, 51.396938394629665 ], [ -3.646089205669596, 51.321384752392547 ], [ -3.304986002111974, 51.285829646165098 ], [ -3.241930561692642, 51.295274080817627 ], [ -3.183874291208877, 51.349441866360969 ], [ -3.09692977106764, 51.363805873482121 ] ] ], [ [ [ -6.288788921623193, 49.99925665119229 ], [ -6.219232054066615, 49.969552445124705 ], [ -6.220882599100854, 49.938752811940063 ], [ -6.260939914761019, 49.902512535714912 ], [ -6.380999546596558, 49.84954259937539 ], [ -6.468319142268754, 49.864005733402799 ], [ -6.480658322005109, 49.904200537870544 ], [ -6.436676886425688, 49.92695656437931 ], [ -6.416799275166587, 49.960173599085969 ], [ -6.339973454060646, 49.995116511997651 ], [ -6.288788921623193, 49.99925665119229 ] ] ], [ [ [ -4.623421036380587, 51.162661635289922 ], [ -4.646008080855409, 51.14515846931819 ], [ -4.692009807151643, 51.143702661718798 ], [ -4.712890083983762, 51.210276185840684 ], [ -4.654700468905182, 51.215300256305454 ], [ -4.623421036380587, 51.162661635289922 ] ] ] ] } },
{ "type": "Feature", "properties": { "rbd_name": "Solway Tweed" }, "geometry": { "type": "Polygon", "coordinates": [ [ [ -2.563818614525319, 55.929651699113379 ], [ -2.558150776231384, 55.931025295029798 ], [ -2.54851019301594, 55.928373122868479 ], [ -2.536402284726533, 55.920789265015593 ], [ -2.503590426054731, 55.920029344388702 ], [ -2.456074165173909, 55.893259765703156 ], [ -2.380798113926212, 55.880487590058983 ], [ -2.319719524941906, 55.839330795799619 ], [ -2.260740634218944, 55.854295156283726 ], [ -2.206376676745008, 55.844065768420926 ], [ -2.184707459488989, 55.820739401185286 ], [ -2.200595269296787, 55.806787781697658 ], [ -2.07618467580276, 55.822202446121842 ], [ -2.067367880179065, 55.799910898889429 ], [ -2.011703806750679, 55.823061484301704 ], [ -1.931521078338673, 55.744888692856314 ], [ -1.962557646549327, 55.728102617249412 ], [ -2.031829433553675, 55.742480159410349 ], [ -2.058862994866426, 55.713717875017586 ], [ -2.095443354367162, 55.702912697910612 ], [ -2.065950754686772, 55.669687109303382 ], [ -2.066703469591084, 55.644977455951114 ], [ -1.927130712508892, 55.634720594770464 ], [ -1.887451267051562, 55.583626649624826 ], [ -1.836710562243914, 55.552339046306997 ], [ -1.876451112589643, 55.515994714443735 ], [ -1.873371663565872, 55.488586052840361 ], [ -1.841791840369503, 55.471027737889962 ], [ -1.859309669232655, 55.437802788607755 ], [ -1.890902201154184, 55.444124817960002 ], [ -1.897271323713188, 55.426159278903903 ], [ -1.938374643926017, 55.411360663872856 ], [ -1.96600645357806, 55.42080620945508 ], [ -2.097087695467024, 55.403699599919378 ], [ -2.126367384559309, 55.424339554098012 ], [ -2.155589095562717, 55.422508723556689 ], [ -2.154920735087331, 55.453509596172793 ], [ -2.182098815219389, 55.464703993872433 ], [ -2.207007389670925, 55.436360007723074 ], [ -2.333207999414992, 55.408675248140305 ], [ -2.344177209860031, 55.398760499798435 ], [ -2.330602785950549, 55.380377522494094 ], [ -2.350919845025119, 55.357856695610963 ], [ -2.48415277990529, 55.353807034807382 ], [ -2.518448979052066, 55.323114651533899 ], [ -2.579039998465584, 55.317450899511641 ], [ -2.591245713324158, 55.2905788546461 ], [ -2.65054605318562, 55.257783780764456 ], [ -2.647041814059087, 55.235786740402709 ], [ -2.696138929515031, 55.210804818963247 ], [ -2.673934868791612, 55.198798350250406 ], [ -2.677122639132457, 55.155198059469747 ], [ -2.646131299232869, 55.131103719948527 ], [ -2.438698402996823, 55.093836510033881 ], [ -2.470612485993907, 55.076194383564733 ], [ -2.45249025655593, 55.066378331015478 ], [ -2.463102850377959, 55.03623471339224 ], [ -2.556584137560763, 55.007536239768335 ], [ -2.553253118626936, 54.992724047063319 ], [ -2.571886014480746, 54.984100847932766 ], [ -2.563783664049096, 54.963470091684982 ], [ -2.638425075850506, 54.94288156997127 ], [ -2.672105262477516, 54.903159481794333 ], [ -2.615823678527981, 54.894022027421748 ], [ -2.571648821333874, 54.857393378414784 ], [ -2.582297594966348, 54.843848328548624 ], [ -2.542223766151808, 54.812146370845696 ], [ -2.551364181083246, 54.740661496767004 ], [ -2.436505295536727, 54.675976250262543 ], [ -2.425293476345996, 54.641866415281953 ], [ -2.327976682432626, 54.5828565881746 ], [ -2.270685816571405, 54.576258163598702 ], [ -2.231096103824949, 54.551177276787897 ], [ -2.234886331412234, 54.538138953974986 ], [ -2.175320316384965, 54.523411740048694 ], [ -2.204537452053041, 54.495955740089208 ], [ -2.190522918745441, 54.470365873120564 ], [ -2.301390318482941, 54.439584213747686 ], [ -2.297018732656708, 54.368147738693224 ], [ -2.360745658636369, 54.35134774542626 ], [ -2.394274764164646, 54.398425365801316 ], [ -2.465155216597986, 54.40086916188929 ], [ -2.447931699703779, 54.445869815401345 ], [ -2.503096616352843, 54.480252834025919 ], [ -2.613445996263835, 54.480192341390193 ], [ -2.653943101404411, 54.50334642219223 ], [ -2.732747930909134, 54.462901513705077 ], [ -2.778184782366127, 54.459022496901412 ], [ -2.804837488197438, 54.480866599233842 ], [ -2.865973855399651, 54.488981855012199 ], [ -2.920282598504679, 54.467010977171199 ], [ -2.979599999418914, 54.495753525545041 ], [ -3.013538756111334, 54.494574963891232 ], [ -3.026930508007331, 54.566809891610234 ], [ -2.963984906461076, 54.586650332446567 ], [ -2.932977127108411, 54.617899013186765 ], [ -2.940442159743433, 54.639410284497309 ], [ -2.919690840444324, 54.646759354438423 ], [ -2.945746817997451, 54.66767827050132 ], [ -3.014808999800683, 54.670264835871663 ], [ -3.04833640315109, 54.647511422771835 ], [ -3.134850764836936, 54.637744230550929 ], [ -3.145462401491083, 54.656966958993934 ], [ -3.093571258845753, 54.6872281940067 ], [ -3.151306825147762, 54.726562464334719 ], [ -3.132152676673182, 54.735730010240054 ], [ -3.137112900630584, 54.746468130803841 ], [ -3.21554857111779, 54.771769978306729 ], [ -3.295623823521832, 54.772289064457787 ], [ -3.315442757429609, 54.784208545093904 ], [ -3.296212842355842, 54.790706639256499 ], [ -3.300532376588102, 54.804141271907874 ], [ -3.371051321453303, 54.796175006184889 ], [ -3.359139734078846, 54.812036802963846 ], [ -3.40972911291212, 54.834826649529198 ], [ -3.378592153622614, 54.880569865637689 ], [ -3.339120375005363, 54.900172562230459 ], [ -3.367329554477578, 54.89136545155278 ], [ -3.39864931081242, 54.868756428175331 ], [ -3.438979326725418, 54.797862256363061 ], [ -3.525075470199734, 54.839104177862588 ], [ -3.910480101145411, 54.596695590327691 ], [ -4.109876132469325, 54.704809611822128 ], [ -4.369133868325848, 54.62861366235321 ], [ -4.870058619554577, 54.582963784736251 ], [ -4.967173219652771, 54.599654917717885 ], [ -5.035394048933629, 54.634540221726887 ], [ -5.091851554931742, 54.750396099316532 ], [ -5.21823794372283, 54.829230430396223 ], [ -5.27041478738707, 54.904423200983651 ], [ -5.269305237468276, 54.997756687777887 ], [ -5.217372751274761, 55.04504380386139 ], [ -5.135555184001476, 55.065548821870046 ], [ -5.105798500974318, 55.103394718012261 ], [ -5.010474013118729, 55.068411200805066 ], [ -4.863820423046168, 55.076895951514985 ], [ -4.774015533307713, 55.035825766546381 ], [ -4.734099555331171, 55.05875411714824 ], [ -4.688479129786638, 55.055725500730226 ], [ -4.678308876554268, 55.091008579957297 ], [ -4.695346096823215, 55.099621930302817 ], [ -4.681346887595565, 55.112965725758109 ], [ -4.70138024222524, 55.130951201990271 ], [ -4.702119512302852, 55.165094523963063 ], [ -4.619379084595005, 55.184430316355602 ], [ -4.595011728595271, 55.208323183158242 ], [ -4.543637468975699, 55.216147625728091 ], [ -4.445570674634236, 55.129614906978333 ], [ -4.359226266606912, 55.155137776070617 ], [ -4.36325152572432, 55.183373725273611 ], [ -4.33399701402598, 55.22034067390404 ], [ -4.355034763863133, 55.243755609935107 ], [ -4.311621978810033, 55.295370034077969 ], [ -4.327543271707967, 55.311695860095206 ], [ -4.312376598190681, 55.321871152688672 ], [ -4.316573625725998, 55.339768099401581 ], [ -4.359933006796437, 55.352869905173776 ], [ -4.305366005404204, 55.404695037168914 ], [ -4.224966272673567, 55.407532995491444 ], [ -4.171061992780459, 55.43276929295881 ], [ -4.085390173728438, 55.411791036303271 ], [ -4.018433063532172, 55.430889736661243 ], [ -4.01079770002396, 55.451686696061202 ], [ -3.971446384818115, 55.471200659619889 ], [ -3.924043727955291, 55.456227437059539 ], [ -3.827743449676669, 55.459950736874241 ], [ -3.817583701492009, 55.428197845404519 ], [ -3.762685593315447, 55.402040237625556 ], [ -3.748690721799911, 55.371235826209585 ], [ -3.711260176119021, 55.363227996519036 ], [ -3.71026684513193, 55.321901432753705 ], [ -3.663307363332581, 55.291994085178011 ], [ -3.603765106962041, 55.299530977116071 ], [ -3.591256185987169, 55.282170115982304 ], [ -3.580220904585715, 55.301635337506589 ], [ -3.596506710902375, 55.314903872123082 ], [ -3.564856403404926, 55.33148985426223 ], [ -3.589030345416514, 55.344658093129752 ], [ -3.572137365684557, 55.356110185659865 ], [ -3.579857503793012, 55.391508508118925 ], [ -3.610829603287144, 55.396047080359409 ], [ -3.608275184375898, 55.410908950146073 ], [ -3.575385779139945, 55.437847965327563 ], [ -3.539802959659124, 55.43740235990736 ], [ -3.522077609287392, 55.490195785001561 ], [ -3.487497689521809, 55.517580345835718 ], [ -3.503771150124395, 55.549732911625803 ], [ -3.488419264585903, 55.562950695138461 ], [ -3.551399970181656, 55.591824887698095 ], [ -3.537597112922587, 55.624349914944538 ], [ -3.568927907442445, 55.633388846203999 ], [ -3.550251903580292, 55.663281420775476 ], [ -3.410391283640685, 55.730567344138315 ], [ -3.452053874947074, 55.780403966073074 ], [ -3.435430406904989, 55.805310781975891 ], [ -3.403301669757049, 55.821407114687688 ], [ -3.374154624150402, 55.809605293827182 ], [ -3.360593623962544, 55.763927899723321 ], [ -3.282480659003802, 55.787681860625995 ], [ -3.262217128472486, 55.752846954327723 ], [ -3.185681065953289, 55.803480102770379 ], [ -3.197530308088737, 55.773712410244855 ], [ -3.188345482972889, 55.73381498498135 ], [ -3.150055999942726, 55.731483745083239 ], [ -3.127159490403951, 55.710579573324708 ], [ -3.091696277025652, 55.723030664617717 ], [ -3.105669938595852, 55.738630599980084 ], [ -3.083813250111401, 55.754550267209197 ], [ -3.007432706318729, 55.789345273477075 ], [ -2.958790844599643, 55.789285031500853 ], [ -2.946471010880589, 55.807351366604522 ], [ -2.863807644764653, 55.820988634199743 ], [ -2.83716818426587, 55.806796386937428 ], [ -2.762175498184296, 55.847268385916728 ], [ -2.752351019841842, 55.834749588207323 ], [ -2.699024236155725, 55.843600137907906 ], [ -2.658077106316485, 55.877520137185371 ], [ -2.62920060602396, 55.870932368981805 ], [ -2.625733430311131, 55.903745458401353 ], [ -2.563818614525319, 55.929651699113379 ] ], [ [ -2.561336201133854, 55.929943127147688 ], [ -2.56132516062094, 55.929944426379166 ], [ -2.561325160880821, 55.929944444347861 ], [ -2.561336201133854, 55.929943127147688 ] ], [ [ -2.046654930235173, 55.804885287815097 ], [ -2.046654930213564, 55.804885269845194 ], [ -2.046543330397767, 55.804945520613749 ], [ -2.046654930235173, 55.804885287815097 ] ], [ [ -2.041489193111119, 55.807768627292262 ], [ -2.039365267446174, 55.808973305472833 ], [ -2.039365299355821, 55.808973305462551 ], [ -2.041489193111119, 55.807768627292262 ] ] ] } },
{ "type": "Feature", "properties": { "rbd_name": "Severn" }, "geometry": { "type": "Polygon", "coordinates": [ [ [ -3.628167887740157, 51.950789671604205 ], [ -3.628356988246969, 51.996153580456195 ], [ -3.651171237607726, 52.002579554264948 ], [ -3.637141391999659, 52.017332796850184 ], [ -3.674759259865348, 52.049043754647961 ], [ -3.663209038921383, 52.071815953395948 ], [ -3.707404148375375, 52.082872796159862 ], [ -3.697722139637742, 52.096949546713624 ], [ -3.71840501299558, 52.122275602667237 ], [ -3.705620940263883, 52.131772573864168 ], [ -3.733079945025184, 52.199257577908625 ], [ -3.725668403035301, 52.234562337554983 ], [ -3.706796476498464, 52.238882936175997 ], [ -3.727232921770933, 52.255988909613848 ], [ -3.76321501565003, 52.258154222817701 ], [ -3.765268764618614, 52.254526965641645 ], [ -3.769661494972337, 52.254461176746311 ], [ -3.769643606456546, 52.254011876229086 ], [ -3.771107806965339, 52.25398991101212 ], [ -3.771089904140155, 52.253540610809772 ], [ -3.771822003620237, 52.253529621461446 ], [ -3.771804093875912, 52.253080321397228 ], [ -3.772536185495771, 52.25306932768801 ], [ -3.77250035299874, 52.252170736783214 ], [ -3.773964651684175, 52.252148734258739 ], [ -3.773928791153523, 52.251250134921293 ], [ -3.775374967647856, 52.250778817781722 ], [ -3.779035063474197, 52.25072369727323 ], [ -3.764162257665552, 52.256921089793373 ], [ -3.764285776136481, 52.296930703000506 ], [ -3.783934942188452, 52.311471113592575 ], [ -3.663990048726801, 52.384701822100425 ], [ -3.710090952828374, 52.419558339073532 ], [ -3.759200987062634, 52.415690703798809 ], [ -3.790765565033809, 52.450731801216513 ], [ -3.739075927464477, 52.483421539086542 ], [ -3.723032002764655, 52.5438957801885 ], [ -3.708942798479255, 52.541852373529643 ], [ -3.70980543093106, 52.526105813758868 ], [ -3.655393684734237, 52.529576863450345 ], [ -3.586594409144358, 52.584014294662502 ], [ -3.532727565462085, 52.605402378181083 ], [ -3.599788387842769, 52.622047150512422 ], [ -3.573260928915352, 52.644429532475947 ], [ -3.596368830294739, 52.690421904776166 ], [ -3.572531938197434, 52.706474030662612 ], [ -3.594508300207865, 52.720565258409799 ], [ -3.583336315676921, 52.739145501935759 ], [ -3.609094984243148, 52.794989133516523 ], [ -3.59845500901278, 52.828397428814611 ], [ -3.50398346253885, 52.843567246124628 ], [ -3.491426902868546, 52.867100237594293 ], [ -3.434759331757336, 52.86060652843684 ], [ -3.376333676574122, 52.891864487341984 ], [ -3.271593743227754, 52.868309942269846 ], [ -3.167097540583853, 52.90489305853179 ], [ -3.086477996305475, 52.891723843522897 ], [ -3.006759897099801, 52.913613712723404 ], [ -2.994461772707028, 52.930286694717715 ], [ -2.972501165480701, 52.912938705962418 ], [ -2.93862904799687, 52.926743565290529 ], [ -2.869979201160277, 52.917329744409024 ], [ -2.851631928052222, 52.900382506177948 ], [ -2.825573145832343, 52.928434132546442 ], [ -2.76406592536456, 52.941430957928439 ], [ -2.717747403119773, 52.930033525467749 ], [ -2.669833081404934, 52.958180580916164 ], [ -2.56810823648133, 52.930862084658962 ], [ -2.575064813136771, 52.917511256748675 ], [ -2.522443308041044, 52.895095511800001 ], [ -2.467655178794563, 52.914651154411182 ], [ -2.462882110183135, 52.955121910850437 ], [ -2.373070216593546, 52.983304642489045 ], [ -2.302058228799952, 52.945751540377053 ], [ -2.377753796795619, 52.922612131261481 ], [ -2.380590484031042, 52.906871713755983 ], [ -2.354461130207972, 52.893468557506786 ], [ -2.36324013284399, 52.876811658520317 ], [ -2.267163122984758, 52.837513440101475 ], [ -2.297520634310552, 52.826653844838269 ], [ -2.280079895686092, 52.809595095066307 ], [ -2.290668146663282, 52.800601336925943 ], [ -2.275730922203258, 52.78400643118858 ], [ -2.281274332408241, 52.758419869557926 ], [ -2.259192092944728, 52.74538869161745 ], [ -2.282480732052029, 52.709928085507805 ], [ -2.233600668193837, 52.669030048883371 ], [ -2.252456238796609, 52.605164178451737 ], [ -2.226643776496338, 52.610610312666815 ], [ -2.222849047932019, 52.590390480744986 ], [ -2.185199027068279, 52.588207978321272 ], [ -2.163130507899758, 52.607568512845525 ], [ -2.094467716229849, 52.608991794966933 ], [ -2.134205868894107, 52.565352819854596 ], [ -2.114241828613441, 52.546944623821311 ], [ -2.117139569044482, 52.527613545217825 ], [ -2.048570616028228, 52.502489969080372 ], [ -2.044858696133722, 52.474173113346126 ], [ -2.010994675735665, 52.462044705736986 ], [ -2.01245327943383, 52.41619546270217 ], [ -2.042581881193096, 52.403602282985375 ], [ -2.022727736704392, 52.382481096852999 ], [ -1.943386612664631, 52.387414468597882 ], [ -1.868344293445098, 52.328019882794557 ], [ -1.789253284128625, 52.356674042587414 ], [ -1.668244034681521, 52.33976469104033 ], [ -1.630626311582817, 52.362578184284715 ], [ -1.608193853299104, 52.408355799145461 ], [ -1.629459803624575, 52.414267881837091 ], [ -1.622494855231633, 52.45515070690616 ], [ -1.575306102396556, 52.465329367897127 ], [ -1.549830416073106, 52.509735810566362 ], [ -1.429725994881942, 52.454378845014382 ], [ -1.316846611101681, 52.474008843240284 ], [ -1.251681589307233, 52.453386836518369 ], [ -1.228967100870075, 52.490100735096874 ], [ -1.07057153736306, 52.493458088070227 ], [ -1.056219295821963, 52.44142567543345 ], [ -0.991709910707862, 52.431678093040951 ], [ -0.98689261212528, 52.417252368466762 ], [ -1.020874121272036, 52.409896649057565 ], [ -0.982833841893667, 52.401933714998911 ], [ -1.021599777498701, 52.377087627802943 ], [ -1.04868531655816, 52.381354354063227 ], [ -1.067211792870427, 52.338797387656683 ], [ -1.099241827140762, 52.351632461760978 ], [ -1.197449296295502, 52.319974705773213 ], [ -1.164335500980056, 52.286480341076448 ], [ -1.189525573247372, 52.271821538446865 ], [ -1.182570562614977, 52.251544850312513 ], [ -1.218023605178476, 52.234703016726449 ], [ -1.213208773450816, 52.217139427515669 ], [ -1.261588801799697, 52.212507143705231 ], [ -1.294274004299882, 52.227990940757017 ], [ -1.318419490236588, 52.180932452408264 ], [ -1.416036071267214, 52.15358504588945 ], [ -1.471333760938617, 52.112489055020113 ], [ -1.481982121761028, 52.075674673030271 ], [ -1.501069529255412, 52.06496815550161 ], [ -1.440457100979128, 52.012549854899909 ], [ -1.511193162426255, 52.006121356825339 ], [ -1.542032705481812, 51.98197013090688 ], [ -1.593069587605732, 51.973616156799508 ], [ -1.722421763539034, 52.007707026222946 ], [ -1.76987983160676, 51.986231464124437 ], [ -1.793039607742194, 52.016393247724174 ], [ -1.831618293130159, 52.02589482674756 ], [ -1.836786338727363, 52.007471190651913 ], [ -1.87760867446034, 51.996282212994061 ], [ -1.901011307702828, 51.951350465415658 ], [ -1.923578765736155, 51.942825985851478 ], [ -1.920711917205937, 51.918548939252794 ], [ -1.950524714244072, 51.912721141882265 ], [ -1.975957402007861, 51.928912486175911 ], [ -2.013038120281014, 51.914978374466038 ], [ -2.011577996330434, 51.891152805880836 ], [ -1.98687767735776, 51.883510462380471 ], [ -1.997774861206757, 51.862832104272215 ], [ -2.093599701483373, 51.853803764987283 ], [ -2.102987562964529, 51.832217647769816 ], [ -2.076133700526161, 51.828192215003085 ], [ -2.051435308243656, 51.801682275222305 ], [ -2.065166754152801, 51.770206851271709 ], [ -2.053544822190175, 51.746386427835809 ], [ -2.117909967224186, 51.711723545670779 ], [ -2.124155798090415, 51.671256809094501 ], [ -2.11271442636096, 51.65957980311358 ], [ -2.12768729872541, 51.641581964082647 ], [ -2.085001327441382, 51.611949521609539 ], [ -2.00846141405188, 51.613778416972842 ], [ -1.971087181619325, 51.582755227354284 ], [ -1.898961531434746, 51.566531031914757 ], [ -1.883711120475084, 51.545387199766495 ], [ -1.839036284812964, 51.537242255989412 ], [ -1.831931504188558, 51.508909284476289 ], [ -1.920601787703481, 51.477082860287581 ], [ -1.928780427838902, 51.410101037484623 ], [ -1.996203148792887, 51.387190492398375 ], [ -1.980407666765348, 51.357968491628654 ], [ -1.921736631977308, 51.324673166833179 ], [ -1.923930786479227, 51.299497700365315 ], [ -1.951034635312286, 51.293666633374734 ], [ -1.96468230425575, 51.263102707705485 ], [ -2.027021370709359, 51.254559113506673 ], [ -2.079359826900685, 51.275666101828662 ], [ -2.105836656664372, 51.256315998478428 ], [ -2.143820535195511, 51.259419221034847 ], [ -2.140874537316868, 51.233349738450123 ], [ -2.226030275783711, 51.220174506073782 ], [ -2.252330092141129, 51.185501715219061 ], [ -2.248569244239104, 51.151343522809327 ], [ -2.300745023195626, 51.149868763904465 ], [ -2.305665671497195, 51.137270466488886 ], [ -2.379276725251013, 51.137504364559547 ], [ -2.457674315126143, 51.188028748283067 ], [ -2.498355548771241, 51.178870431955282 ], [ -2.504560779448827, 51.208967059753505 ], [ -2.575748394991533, 51.235164696774966 ], [ -2.640903126580437, 51.233926723565482 ], [ -2.658452571055943, 51.209101294887844 ], [ -2.706962442599804, 51.19847721961257 ], [ -2.795305610569979, 51.217242933665133 ], [ -2.868131878057065, 51.20683383551583 ], [ -2.873046561975814, 51.239618490572376 ], [ -2.843288742524481, 51.257371248350942 ], [ -2.867209971048348, 51.272033311639596 ], [ -3.011078419682719, 51.251910819657532 ], [ -3.021739168923324, 51.266677106561509 ], [ -3.013018465720268, 51.323088321101245 ], [ -3.169654705303019, 51.405726350057186 ], [ -3.173837714185153, 51.434814467549423 ], [ -3.220052850930384, 51.468512038791054 ], [ -3.363868827409221, 51.463330166686717 ], [ -3.431006068314923, 51.492653422389814 ], [ -3.435921307811191, 51.534451699945635 ], [ -3.419030271937681, 51.547650488068847 ], [ -3.471511330959148, 51.565033192341893 ], [ -3.462656844158988, 51.603809506676129 ], [ -3.559427810989221, 51.646579199707681 ], [ -3.590931237232763, 51.679426929002496 ], [ -3.583542919015293, 51.716393789746292 ], [ -3.540363514755821, 51.723711882406562 ], [ -3.548136908786314, 51.739345455218128 ], [ -3.529726810856647, 51.751725586693759 ], [ -3.542586947482073, 51.767742726951141 ], [ -3.4812377879314, 51.797305562919611 ], [ -3.479247262321841, 51.847234407980132 ], [ -3.5102548953456, 51.884434323402587 ], [ -3.536883806752541, 51.877066942821884 ], [ -3.538540477224988, 51.861759369518346 ], [ -3.621924466219483, 51.858391137287519 ], [ -3.671164851851996, 51.893947635269363 ], [ -3.710031508545316, 51.884118509726214 ], [ -3.738553249167337, 51.907807525339919 ], [ -3.730602368471611, 51.927877638833991 ], [ -3.750952133032354, 51.946234277994172 ], [ -3.705186518848395, 51.967191768768494 ], [ -3.641142820821218, 51.947462379161124 ], [ -3.628167887740157, 51.950789671604205 ] ] ] } },
{ "type": "Feature", "properties": { "rbd_name": "Dee" }, "geometry": { "type": "Polygon", "coordinates": [ [ [ -2.630300979789068, 52.952441304513883 ], [ -2.692854401949169, 52.95490227502637 ], [ -2.71774738809585, 52.930033516569068 ], [ -2.764065910327223, 52.94143094903567 ], [ -2.825573145661272, 52.928434123558112 ], [ -2.851631913011387, 52.900382497296263 ], [ -2.869979186109805, 52.917329735529698 ], [ -2.938629032929172, 52.926743556419972 ], [ -2.972501150410965, 52.912938697096152 ], [ -2.994461757626771, 52.930286685854327 ], [ -3.006759896891314, 52.9136137037355 ], [ -3.086477996080664, 52.891723834535178 ], [ -3.167097525477605, 52.904893049690443 ], [ -3.271593742964878, 52.868309933282696 ], [ -3.376333661430374, 52.891864478527488 ], [ -3.434759316612892, 52.860606519629748 ], [ -3.491426902560256, 52.867100228607995 ], [ -3.50398344738657, 52.84356723732639 ], [ -3.593410468193891, 52.832510916414975 ], [ -3.608259169017592, 52.812531757255691 ], [ -3.597548316445472, 52.803686064530758 ], [ -3.625925046139145, 52.788915836840012 ], [ -3.677112375758817, 52.789551728600259 ], [ -3.702283835331517, 52.826503840270767 ], [ -3.730781929030645, 52.81530292751404 ], [ -3.765364772345, 52.826481167809199 ], [ -3.737729752129151, 52.859254952992856 ], [ -3.805926937113728, 52.873970451188839 ], [ -3.817054319081071, 52.891332271567869 ], [ -3.804841861824593, 52.919389154362591 ], [ -3.812789071931149, 52.94938626703523 ], [ -3.760289769248887, 52.957817575297319 ], [ -3.76684589062166, 52.972554402517012 ], [ -3.743336435562123, 52.99897357854254 ], [ -3.68256344118126, 52.988162058308063 ], [ -3.671086927685992, 53.018890682081519 ], [ -3.592135874531791, 53.020641501050392 ], [ -3.587520415344675, 53.057344628996802 ], [ -3.655912406533179, 53.0897621174569 ], [ -3.567482397256638, 53.121888632056645 ], [ -3.523449563104422, 53.123359386887998 ], [ -3.488129861419917, 53.095937728374572 ], [ -3.494474054014919, 53.085070353818935 ], [ -3.45203497999813, 53.025363687611588 ], [ -3.411643819158159, 53.019974011531168 ], [ -3.406822664611044, 53.007028446655426 ], [ -3.373155333138496, 53.026300783209528 ], [ -3.320546950823389, 53.012513008105849 ], [ -3.220788458635679, 53.042795665649791 ], [ -3.216024780181846, 53.059025824932348 ], [ -3.241720162403515, 53.070446915286652 ], [ -3.255343614377003, 53.153907160518543 ], [ -3.280425535516093, 53.167573867899641 ], [ -3.279424795686196, 53.184215239332964 ], [ -3.189233437972223, 53.223804391210614 ], [ -3.239302290139914, 53.271836805331759 ], [ -3.292682959888501, 53.276663534107293 ], [ -3.314596599051302, 53.306538386140801 ], [ -3.397536107590588, 53.318629932954089 ], [ -3.354101246152125, 53.325873027252541 ], [ -3.371600721169224, 53.350475077728944 ], [ -3.200157365457168, 53.388207703170416 ], [ -2.953236023031983, 53.253792595009976 ], [ -2.915865842911574, 53.258580158193396 ], [ -2.86604141940254, 53.240974360902776 ], [ -2.867752365840473, 53.214444032275132 ], [ -2.785592260596568, 53.144000014730906 ], [ -2.717048799256487, 53.11252107365609 ], [ -2.733205336809089, 53.096242050045603 ], [ -2.726921738043353, 53.077852667380085 ], [ -2.750678194249342, 53.070513721682097 ], [ -2.718598086449506, 53.026214881323554 ], [ -2.72118235533952, 53.002377487033229 ], [ -2.652363710241299, 52.984346937951337 ], [ -2.630300979789068, 52.952441304513883 ] ] ] } },
{ "type": "Feature", "properties": { "rbd_name": "North West" }, "geometry": { "type": "Polygon", "coordinates": [ [ [ -3.864842504737628, 54.617433389147969 ], [ -3.637999199559575, 54.778960273101902 ], [ -3.525075470199734, 54.839104177862588 ], [ -3.438979326725418, 54.797862256363061 ], [ -3.39864931081242, 54.868756428175331 ], [ -3.367329554477578, 54.89136545155278 ], [ -3.339120375005363, 54.900172562230459 ], [ -3.378592153622614, 54.880569865637689 ], [ -3.40972911291212, 54.834826649529198 ], [ -3.359139734078846, 54.812036802963846 ], [ -3.371051321453303, 54.796175006184889 ], [ -3.300532376010921, 54.804141253939633 ], [ -3.296212842355842, 54.790706639256499 ], [ -3.315442726340045, 54.784208545431056 ], [ -3.295623823521832, 54.772289064457787 ], [ -3.215548602199014, 54.771769977995213 ], [ -3.137112900630584, 54.746468130803841 ], [ -3.132152676673182, 54.735730010240054 ], [ -3.151306825147762, 54.726562464334719 ], [ -3.093571258845753, 54.6872281940067 ], [ -3.145462401491083, 54.656966958993934 ], [ -3.134850765337524, 54.637744248520811 ], [ -3.048336402688485, 54.647511404801492 ], [ -3.014808999800683, 54.670264835871663 ], [ -2.945746849001905, 54.667678270259245 ], [ -2.919690840444324, 54.646759354438423 ], [ -2.94044216015832, 54.639410302468271 ], [ -2.932977127108411, 54.617899013186765 ], [ -2.963984906461076, 54.586650332446567 ], [ -3.026930508007331, 54.566809891610234 ], [ -3.013538756111334, 54.494574963891232 ], [ -2.979599999418914, 54.495753525545041 ], [ -2.920282598504679, 54.467010977171199 ], [ -2.865973855399651, 54.488981855012199 ], [ -2.804837519061586, 54.480866599028296 ], [ -2.776642386387719, 54.459032422085969 ], [ -2.641583185420097, 54.502963306730805 ], [ -2.613445996263835, 54.480192341390193 ], [ -2.503096616352843, 54.480252834025919 ], [ -2.452117862328225, 54.45259451624861 ], [ -2.449899609771593, 54.414407769556817 ], [ -2.465930464123, 54.401315529054152 ], [ -2.394274794969189, 54.398425365700675 ], [ -2.375668775678958, 54.385004037821737 ], [ -2.37541439192939, 54.357144648620448 ], [ -2.316829851310114, 54.327655064885022 ], [ -2.323866922835805, 54.259333218649033 ], [ -2.289303001668501, 54.255826271111083 ], [ -2.282282206941103, 54.239216390420609 ], [ -2.24784103142821, 54.252773159155282 ], [ -2.24766588228164, 54.223564732222123 ], [ -2.285105937947007, 54.203709695066088 ], [ -2.237502993706398, 54.189882594725603 ], [ -2.254316168399977, 54.182658320354449 ], [ -2.234336271835584, 54.171914007478897 ], [ -2.251077352081807, 54.153905362676873 ], [ -2.244123634841229, 54.143134740992672 ], [ -2.201983811048921, 54.134225436948988 ], [ -2.209427263726671, 54.092870209598274 ], [ -2.191036860876808, 54.08346393973688 ], [ -2.194784556690241, 54.067729696281013 ], [ -2.229794159155202, 54.04340134924324 ], [ -2.197605612273055, 54.018293284929406 ], [ -2.204400615853681, 54.003452275785904 ], [ -2.178382056142098, 53.984170267942645 ], [ -2.192819029342237, 53.973362695012007 ], [ -2.164661043960466, 53.950564335543028 ], [ -2.182457830079708, 53.941420248987235 ], [ -2.168977539535885, 53.921269733248309 ], [ -2.207632921256318, 53.88660595984922 ], [ -2.169547438409165, 53.874082881962288 ], [ -2.103413675312736, 53.88494364159093 ], [ -2.039489440983425, 53.854872539240667 ], [ -2.104768356814764, 53.818432162313982 ], [ -2.106246252378773, 53.802252547341403 ], [ -2.130533906491725, 53.800430937990413 ], [ -2.131158168386431, 53.757287898728265 ], [ -2.18947021233943, 53.739233709997997 ], [ -2.165139268035257, 53.720394802352978 ], [ -2.162777574999213, 53.697478392066643 ], [ -2.144533551957569, 53.677278529017762 ], [ -2.102126646510674, 53.669232955189621 ], [ -2.043114085191713, 53.684548703443255 ], [ -2.05369608528031, 53.671511604863525 ], [ -2.033253918801099, 53.661182701777427 ], [ -2.042314439367713, 53.64230464327634 ], [ -2.022636539258833, 53.615794812344923 ], [ -2.002985646823394, 53.620291063197627 ], [ -1.945612170569255, 53.561855123215039 ], [ -1.778380096623016, 53.495597965315369 ], [ -1.81769608277258, 53.466451851114073 ], [ -1.859146553595635, 53.458418183213247 ], [ -1.866023781628836, 53.426516804601889 ], [ -1.905178478805474, 53.4144198020931 ], [ -1.857111798338567, 53.391451235770127 ], [ -1.885047064131403, 53.376510485989577 ], [ -1.850508699418204, 53.344702382128276 ], [ -1.870823999039329, 53.332141926895765 ], [ -1.861881128602539, 53.311457960096611 ], [ -1.950473155474553, 53.27557255886952 ], [ -1.961754557292339, 53.236925049928267 ], [ -1.97898520129299, 53.235131443599826 ], [ -1.955018070801254, 53.231529418789897 ], [ -1.952830390664526, 53.177145927082591 ], [ -1.97528187564348, 53.161422054658622 ], [ -2.022401804686828, 53.176254106558495 ], [ -2.046312272765855, 53.150628754702794 ], [ -2.137540880003852, 53.156400950366283 ], [ -2.1269718022883, 53.122254666424986 ], [ -2.156046261900892, 53.104691477763637 ], [ -2.209874424976861, 53.116294357211913 ], [ -2.208983723016778, 53.086632236677801 ], [ -2.284868696096709, 53.047371992126138 ], [ -2.299629255182719, 53.024862834500809 ], [ -2.283109151624807, 53.006475636457132 ], [ -2.30664053881944, 52.962369953927819 ], [ -2.373070216593546, 52.983304642489045 ], [ -2.410259015956761, 52.978237955111751 ], [ -2.465100306016627, 52.953764849844177 ], [ -2.474283072207202, 52.908781768798335 ], [ -2.532099220246571, 52.894603168743132 ], [ -2.576790666808341, 52.919239920604916 ], [ -2.56810823648133, 52.930862084658962 ], [ -2.63253837065613, 52.952766623524525 ], [ -2.652363725270798, 52.984346946858196 ], [ -2.721182355489367, 53.002377496021673 ], [ -2.718598101507189, 53.02621489022188 ], [ -2.750678194405702, 53.070513730670392 ], [ -2.726921738194807, 53.077852676368408 ], [ -2.733205336961955, 53.096242059033877 ], [ -2.717048799406073, 53.112521082644371 ], [ -2.7855922757094, 53.144000023620364 ], [ -2.867752366022155, 53.214444041262929 ], [ -2.86604143456627, 53.240974369781661 ], [ -2.915865858091814, 53.258580167065851 ], [ -2.953236038218189, 53.253792603877649 ], [ -3.196919093562191, 53.388031322273122 ], [ -3.264009451431666, 53.371031701184471 ], [ -3.330802934789918, 53.416342149337439 ], [ -3.230285257266743, 53.537934001165084 ], [ -3.169755164666806, 53.565226516765456 ], [ -3.111707475067532, 53.624304453459871 ], [ -3.108152067887602, 53.646076600515649 ], [ -3.142141865102877, 53.702220779815363 ], [ -3.101136921330567, 53.778278055304014 ], [ -3.096123660016066, 53.872573610353065 ], [ -3.146307564159905, 53.907609355393113 ], [ -3.134925417501959, 53.955616214148264 ], [ -3.304254306635518, 54.080102383821057 ], [ -3.376062377565423, 54.151702618116516 ], [ -3.382333646595606, 54.205180438810132 ], [ -3.482585418386676, 54.277009533037763 ], [ -3.475026103106385, 54.325688408830523 ], [ -3.519104082603088, 54.382097578746091 ], [ -3.681625135106757, 54.517341178726127 ], [ -3.864842504737628, 54.617433389147969 ] ] ] } },
{ "type": "Feature", "properties": { "rbd_name": "Northumbria" }, "geometry": { "type": "Polygon", "coordinates": [ [ [ -0.826273386955624, 54.585644179587256 ], [ -0.892946523805815, 54.496006276992077 ], [ -0.948783720237927, 54.486169026766163 ], [ -0.983722740557852, 54.508936133447733 ], [ -1.021737844177722, 54.501610352610406 ], [ -1.053869596518183, 54.514448283011419 ], [ -1.067314536142236, 54.500622320575474 ], [ -1.013307398845561, 54.466940548861587 ], [ -1.064593113723119, 54.450721653084187 ], [ -1.058488629689523, 54.414275317935903 ], [ -1.193184933537343, 54.421091711007996 ], [ -1.184033901040112, 54.377441466599613 ], [ -1.236354586633379, 54.378682532643246 ], [ -1.30001589179595, 54.437485405008609 ], [ -1.357897223558581, 54.433313149927208 ], [ -1.367626141011562, 54.452237393819956 ], [ -1.452741223406503, 54.430634288306578 ], [ -1.518910705547866, 54.445797734265774 ], [ -1.584528863738289, 54.431608336329319 ], [ -1.633567372139901, 54.46412033624965 ], [ -1.689977778254637, 54.450797480849751 ], [ -1.731547145243091, 54.461681271500034 ], [ -1.731435602343903, 54.478756288397037 ], [ -1.805444277300974, 54.49327707202535 ], [ -1.871853892601886, 54.485277148306736 ], [ -1.881169789896397, 54.466414244137148 ], [ -1.915124045790934, 54.460151911773458 ], [ -2.032365533641614, 54.466467995331286 ], [ -2.037012914191537, 54.487136603016602 ], [ -2.138753372137138, 54.446621015976042 ], [ -2.174289198486406, 54.462751477423645 ], [ -2.224376825471414, 54.453681778171834 ], [ -2.190522918703629, 54.470365864133662 ], [ -2.204537436568931, 54.495955731128511 ], [ -2.175320300896844, 54.523411731084288 ], [ -2.23488633136057, 54.538138944988219 ], [ -2.231096088314091, 54.551177267830724 ], [ -2.270685816511793, 54.576258154612034 ], [ -2.327976666744056, 54.582856561256669 ], [ -2.425293460758051, 54.641866406349962 ], [ -2.436505279933225, 54.675976241332073 ], [ -2.551364180961142, 54.740661487780898 ], [ -2.542223750472496, 54.812146361929216 ], [ -2.582297594836904, 54.843848319562696 ], [ -2.571648821206732, 54.857393369428863 ], [ -2.615823678390833, 54.894022018435948 ], [ -2.671280688202764, 54.900468070634901 ], [ -2.638425060098986, 54.942881561067601 ], [ -2.563783648305931, 54.963470082771629 ], [ -2.571885998599897, 54.984100830034784 ], [ -2.553253102874602, 54.99272403814868 ], [ -2.556584137436281, 55.007536230782598 ], [ -2.463102850274262, 55.036234704406432 ], [ -2.452490240796902, 55.0663783220879 ], [ -2.470612470226988, 55.076194374639542 ], [ -2.438698402898378, 55.093836501048131 ], [ -2.646131299087704, 55.131103710963146 ], [ -2.677122638980196, 55.155198050484429 ], [ -2.67393485293092, 55.198798341351988 ], [ -2.696138929358172, 55.210804809978072 ], [ -2.64704181391315, 55.23578673141747 ], [ -2.650546037306537, 55.257783771863124 ], [ -2.591245713190528, 55.290578845660853 ], [ -2.579039966822451, 55.317450890675843 ], [ -2.518448963176271, 55.323114642615501 ], [ -2.484152779795595, 55.353807025822064 ], [ -2.350919829172965, 55.357856686670829 ], [ -2.330602770093941, 55.380377513551352 ], [ -2.344177193992992, 55.398760490857491 ], [ -2.333207999339324, 55.408675239154888 ], [ -2.207007389623844, 55.436359998737636 ], [ -2.182098815177923, 55.464703984887016 ], [ -2.154920719241063, 55.453509587207392 ], [ -2.155589079728723, 55.422508714591309 ], [ -2.126367384530558, 55.42433954511251 ], [ -2.097087679653796, 55.403699590946424 ], [ -1.966006437787731, 55.420806200465215 ], [ -1.938374596557309, 55.41136065486355 ], [ -1.897271323736454, 55.426159269918394 ], [ -1.89090215375709, 55.444124808932365 ], [ -1.8498029766609, 55.44408135925908 ], [ -1.841791840405427, 55.471027728904545 ], [ -1.873371695244754, 55.488586043887594 ], [ -1.876451096781671, 55.515994705442445 ], [ -1.849481892241881, 55.528544125409937 ], [ -1.844602229616815, 55.560885345577816 ], [ -1.887451251213929, 55.583626640625027 ], [ -1.927130712525507, 55.634720585785253 ], [ -2.066703453687668, 55.644977446974579 ], [ -2.065950738773505, 55.669687100326797 ], [ -2.095443354345205, 55.702912688925515 ], [ -2.058862978936882, 55.713717866040156 ], [ -2.031829401690934, 55.742480150433607 ], [ -1.962557630636035, 55.728102608259512 ], [ -1.931521078354349, 55.744888683871281 ], [ -1.77636458953912, 55.707135546503885 ], [ -1.670122189457887, 55.663427440101998 ], [ -1.588296665631592, 55.664617896951015 ], [ -1.568708322082827, 55.625357923594464 ], [ -1.605081720643812, 55.579101046849829 ], [ -1.539437423936772, 55.429288128705302 ], [ -1.544880667779212, 55.369108517249558 ], [ -1.506660942521557, 55.335535054878356 ], [ -1.529336414573672, 55.264005352533665 ], [ -1.467451985830282, 55.195777200025049 ], [ -1.480437610297449, 55.16017073270725 ], [ -1.451905223134725, 55.104597761737637 ], [ -1.327621568048942, 54.971616620183845 ], [ -1.322134682071512, 54.887111358607555 ], [ -1.272885319772417, 54.779032965621887 ], [ -1.153850782541776, 54.710233698226524 ], [ -1.142802902410479, 54.676303920479867 ], [ -1.108457631295514, 54.655512562662544 ], [ -1.031626131527684, 54.643487544242483 ], [ -0.984684793161371, 54.612051842296822 ], [ -0.826273386955624, 54.585644179587256 ] ] ] } },
{ "type": "Feature", "properties": { "rbd_name": "Humber" }, "geometry": { "type": "Polygon", "coordinates": [ [ [ 0.224233794244026, 53.454286735880935 ], [ 0.160593585808452, 53.443460338158729 ], [ 0.102135618338249, 53.403148347986935 ], [ 0.080713448110302, 53.411165359347066 ], [ 0.05254439561787, 53.372994951918571 ], [ -0.018742860021407, 53.359365914785478 ], [ -0.023328463780218, 53.34146163881482 ], [ 0.005414081393537, 53.329744178348925 ], [ -0.062059079132458, 53.298944317241265 ], [ -0.108761912116224, 53.328628482583525 ], [ -0.11394306841078, 53.364504513795673 ], [ -0.067809299885838, 53.387590164158162 ], [ -0.096089566510288, 53.410969041380149 ], [ -0.145912668052976, 53.389727801195065 ], [ -0.228581576573979, 53.390533616070982 ], [ -0.219364747272119, 53.377361244797903 ], [ -0.239341456578889, 53.366869801562807 ], [ -0.340493093385527, 53.374611831619454 ], [ -0.556713408182659, 53.337418810015834 ], [ -0.586353390891126, 53.394856260061509 ], [ -0.628868077525368, 53.382768315231637 ], [ -0.683790623720455, 53.41426124217697 ], [ -0.761163178892025, 53.408483692392309 ], [ -0.763279482644811, 53.387381092163018 ], [ -0.739193922460314, 53.362858297044099 ], [ -0.746336699183314, 53.349899117746318 ], [ -0.707944854748103, 53.352635960358882 ], [ -0.681157798583454, 53.31998136973597 ], [ -0.69791416104426, 53.287354325815286 ], [ -0.732033220450233, 53.300306896887271 ], [ -0.744271625129644, 53.292345864083359 ], [ -0.68546522722447, 53.25305786173724 ], [ -0.719825408903458, 53.206686604370923 ], [ -0.706119880574441, 53.189458519090337 ], [ -0.67256652043169, 53.185493717819917 ], [ -0.662366343422775, 53.152567522500291 ], [ -0.720468964105534, 53.134777249041598 ], [ -0.724029942615427, 53.115487825607168 ], [ -0.77871344148947, 53.079076066868858 ], [ -0.760206147828387, 53.052493179984708 ], [ -0.807534500116619, 53.01342243637928 ], [ -0.756932334414649, 52.996688302650149 ], [ -0.792970053492606, 52.947679721395467 ], [ -0.747258760166068, 52.931901000968949 ], [ -0.754535548740839, 52.886123891250904 ], [ -0.734276137082737, 52.86792876416667 ], [ -0.74658681524061, 52.851905005475487 ], [ -0.717891849467947, 52.821066304072723 ], [ -0.724568275963051, 52.793657242460817 ], [ -0.690670969761431, 52.786545525786352 ], [ -0.700502003924212, 52.755188139170336 ], [ -0.677466990544086, 52.734286167628348 ], [ -0.681743392959246, 52.689352576277756 ], [ -0.733563467186443, 52.688119307408407 ], [ -0.777772579794714, 52.667905943743875 ], [ -0.824040643618478, 52.679611667040483 ], [ -0.825989242324826, 52.662100259788332 ], [ -0.876143863325549, 52.637863382643154 ], [ -0.920378474908867, 52.641870678946809 ], [ -0.936949518242397, 52.598418254990015 ], [ -0.92393970317109, 52.587063039021018 ], [ -1.058262206247167, 52.518083803982414 ], [ -1.07210093682126, 52.490772916664312 ], [ -1.22896708630109, 52.490100726011825 ], [ -1.251681589459554, 52.453386827529144 ], [ -1.316846596519784, 52.474008834165986 ], [ -1.429725980283191, 52.454378835953932 ], [ -1.560889524132068, 52.508878328631056 ], [ -1.575306102483018, 52.46532935890739 ], [ -1.622494855308453, 52.455150697916366 ], [ -1.629459788997977, 52.414267872801176 ], [ -1.608193838678815, 52.40835579010691 ], [ -1.650549943525582, 52.350052464301825 ], [ -1.754093933669734, 52.342221897547006 ], [ -1.789253269488357, 52.35667403357116 ], [ -1.868344293471732, 52.328019873804394 ], [ -1.94338659798281, 52.387414459600777 ], [ -2.019788972774184, 52.381582612139596 ], [ -2.040367586870685, 52.393264468972035 ], [ -2.012453264728406, 52.416195453713705 ], [ -2.010994675733372, 52.462044696747007 ], [ -2.044858696124529, 52.474173104356147 ], [ -2.04857060128666, 52.502489960096526 ], [ -2.120094923373478, 52.53030754352281 ], [ -2.114241813820189, 52.546944605855899 ], [ -2.134209992922036, 52.56670128109036 ], [ -2.095913907742055, 52.595056470059241 ], [ -2.105563779557003, 52.617522663233387 ], [ -2.163130493099516, 52.607568503876159 ], [ -2.185199012270069, 52.588207969354634 ], [ -2.222849047886362, 52.590390471755285 ], [ -2.226643761682118, 52.610610303705421 ], [ -2.252456238744867, 52.605164169462071 ], [ -2.233600653310418, 52.669030030933364 ], [ -2.282480731993919, 52.70992807651831 ], [ -2.259192092891334, 52.745388682627983 ], [ -2.281274317532645, 52.758419860603667 ], [ -2.275730907320053, 52.784006422233688 ], [ -2.290668146603292, 52.800601327936604 ], [ -2.280079895628268, 52.809595086076961 ], [ -2.297520619408278, 52.826653835886184 ], [ -2.267163122929542, 52.837513431112164 ], [ -2.353502062462285, 52.866952689644719 ], [ -2.354461115271042, 52.893468548562019 ], [ -2.382880164524786, 52.913606359520934 ], [ -2.306459097311436, 52.936750966697055 ], [ -2.302058228674619, 52.945751522398801 ], [ -2.33040503731265, 52.955114800466959 ], [ -2.333249385445503, 52.964995128183858 ], [ -2.299240255368603, 52.968681295718298 ], [ -2.308247518178018, 52.978995878899433 ], [ -2.283120924561671, 53.008273247320709 ], [ -2.299632357262591, 53.025312266708404 ], [ -2.208983708042994, 53.086632227715086 ], [ -2.211364042093798, 53.115392809252242 ], [ -2.15156686844176, 53.105146734659627 ], [ -2.126971787319165, 53.122254657451997 ], [ -2.137540879975069, 53.156400941377377 ], [ -2.046312272756128, 53.150628745713867 ], [ -2.022401804682092, 53.176254097569604 ], [ -1.97528187564859, 53.16142204566971 ], [ -1.952830375712641, 53.177145918087803 ], [ -1.955018055829977, 53.231529409795463 ], [ -1.978985201297336, 53.235131434611034 ], [ -1.961754557300296, 53.236925040939468 ], [ -1.950473155484887, 53.275572549880778 ], [ -1.861881128631497, 53.31145795110794 ], [ -1.870823984050593, 53.332141917890908 ], [ -1.850508684429352, 53.344702373120903 ], [ -1.885047064155552, 53.37651047700102 ], [ -1.857111783331922, 53.391451226763635 ], [ -1.905178463780594, 53.414419793092662 ], [ -1.86602378165704, 53.426516795613381 ], [ -1.859146538564985, 53.458418174207083 ], [ -1.817696082811035, 53.46645184212565 ], [ -1.778380081596382, 53.495597956299115 ], [ -1.945612170580728, 53.561855114226745 ], [ -2.002985631704761, 53.620291054209815 ], [ -2.022636539253969, 53.615794803356678 ], [ -2.04231443935866, 53.642304634288159 ], [ -2.0332539036614, 53.661182692793496 ], [ -2.053696085268827, 53.671511595875387 ], [ -2.043114070041534, 53.684548694460588 ], [ -2.102126646488884, 53.66923294620149 ], [ -2.144533551926746, 53.677278520029674 ], [ -2.162777574964482, 53.697478383078582 ], [ -2.165139252846237, 53.720394793385857 ], [ -2.189470197138438, 53.739233701033989 ], [ -2.131158168358372, 53.757287889740255 ], [ -2.130533891281137, 53.800430929019022 ], [ -2.106246237172706, 53.802252538366957 ], [ -2.104768341603151, 53.818432153339373 ], [ -2.039489425772555, 53.854872530257836 ], [ -2.103413675268259, 53.884943623615314 ], [ -2.169547438372755, 53.874082872974483 ], [ -2.207632905997956, 53.886605950887798 ], [ -2.168977539499534, 53.921269724260576 ], [ -2.182457814806708, 53.941420240022687 ], [ -2.164661043925005, 53.950564326555345 ], [ -2.192819014055321, 53.973362686048866 ], [ -2.178382040854314, 53.984170258977677 ], [ -2.204400600509151, 54.003452257836692 ], [ -2.19760559696862, 54.01829327596694 ], [ -2.229794143834618, 54.043401340284944 ], [ -2.194784556648124, 54.067729687293514 ], [ -2.191036845549784, 54.083463930773704 ], [ -2.209427248392217, 54.092870200637464 ], [ -2.200435997144006, 54.13063302167879 ], [ -2.25105557624587, 54.15031042856684 ], [ -2.234336256466492, 54.171913998521426 ], [ -2.254316153022584, 54.182658311399528 ], [ -2.237502993654825, 54.189882585738324 ], [ -2.28510592255514, 54.203709686115147 ], [ -2.247665866890458, 54.223564723266435 ], [ -2.247841016026098, 54.252773150199658 ], [ -2.282282206879707, 54.239216381433437 ], [ -2.289302986256285, 54.255826262160816 ], [ -2.323866922765321, 54.259333209661918 ], [ -2.316829835865038, 54.327655055938401 ], [ -2.363850378614207, 54.354483914105657 ], [ -2.296252399234364, 54.368598971100106 ], [ -2.301390318416907, 54.439584204760813 ], [ -2.233666654437676, 54.459955054467017 ], [ -2.197366629761722, 54.449684811941545 ], [ -2.17043066573564, 54.462307639802127 ], [ -2.138753372137138, 54.446621015976042 ], [ -2.035469333761867, 54.48713688932348 ], [ -2.032365533641614, 54.466467995331286 ], [ -1.962176917849407, 54.456131551410792 ], [ -1.81470719220101, 54.493291602106069 ], [ -1.731435602343903, 54.478756288397037 ], [ -1.731547145243091, 54.461681271500034 ], [ -1.689977778254637, 54.450797480849751 ], [ -1.633567372139901, 54.46412033624965 ], [ -1.584528863738289, 54.431608336329319 ], [ -1.518910705547866, 54.445797734265774 ], [ -1.452741223406503, 54.430634288306578 ], [ -1.367626141011562, 54.452237393819956 ], [ -1.357897223558581, 54.433313149927208 ], [ -1.30001589179595, 54.437485405008609 ], [ -1.236354586633379, 54.378682532643246 ], [ -1.184033901040112, 54.377441466599613 ], [ -1.193184933537343, 54.421091711007996 ], [ -1.058488629689523, 54.414275317935903 ], [ -1.064593113723119, 54.450721653084187 ], [ -1.013307398845561, 54.466940548861587 ], [ -1.067314536142236, 54.500622320575474 ], [ -1.052304557599832, 54.515334660639589 ], [ -0.922476510969737, 54.488633774896975 ], [ -0.858022179709203, 54.530283315267617 ], [ -0.826273386955624, 54.585644179587256 ], [ -0.75991037631326, 54.574547539719262 ], [ -0.54981739232107, 54.493841092653916 ], [ -0.442329369719831, 54.400764499736127 ], [ -0.337297223792109, 54.263643664532211 ], [ -0.235496300431784, 54.226463384743589 ], [ -0.214889746976613, 54.181605057845488 ], [ -0.051412558707727, 54.124570557779144 ], [ -0.057818365729403, 54.098240770878725 ], [ -0.135229821100409, 54.083287681028466 ], [ -0.176020112410432, 54.05873139517071 ], [ -0.178972763318577, 54.003091829715594 ], [ -0.10259015095291, 53.884146163379413 ], [ 0.14921327129485, 53.668336342811827 ], [ 0.193994105198624, 53.579272240344309 ], [ 0.191425579516775, 53.530928387432581 ], [ 0.213690567629164, 53.50480828482555 ], [ 0.224233794244026, 53.454286735880935 ] ] ] } },
{ "type": "Feature", "properties": { "rbd_name": "Thames" }, "geometry": { "type": "Polygon", "coordinates": [ [ [ -1.213940555826298, 52.217144293055433 ], [ -1.17061137250444, 52.185830226328079 ], [ -1.17244088939221, 52.166063627679357 ], [ -1.131779858598787, 52.15183586283711 ], [ -1.147656481335905, 52.124080392448853 ], [ -1.201189877581168, 52.111868046605139 ], [ -1.194528907077576, 52.076309310860907 ], [ -1.221307972892252, 52.046706905063935 ], [ -1.188407086361036, 52.011533159799349 ], [ -1.150039558978219, 51.998675365317951 ], [ -1.262827338582647, 51.960324551573471 ], [ -1.261660009874358, 51.942784885438854 ], [ -1.119643462315587, 51.95169905293988 ], [ -1.074444425588248, 51.920782865191924 ], [ -1.010811560903418, 51.9049804974387 ], [ -0.953228729810365, 51.91212506228765 ], [ -0.947782366511286, 51.896341907083603 ], [ -0.879916522042636, 51.8786322569646 ], [ -0.847134246645074, 51.882361764931694 ], [ -0.773780917111418, 51.935118722887808 ], [ -0.745512156615591, 51.905599096365414 ], [ -0.776347232750624, 51.894234939617618 ], [ -0.77759797680074, 51.874916520788091 ], [ -0.684088970818212, 51.868513143342575 ], [ -0.634711994060847, 51.820295532199324 ], [ -0.603237525023475, 51.829367033583083 ], [ -0.607912913403369, 51.842460237571139 ], [ -0.55059609345858, 51.841767991098557 ], [ -0.534368059296825, 51.872138477966807 ], [ -0.552652314188488, 51.890797406057494 ], [ -0.454020760509416, 51.948887550964159 ], [ -0.365222284233631, 51.949935974182594 ], [ -0.244481223140514, 51.874464427543131 ], [ -0.218858688473418, 51.879533184571855 ], [ -0.211027861705665, 51.893801427803936 ], [ -0.236416186416268, 51.908122037219314 ], [ -0.230305155477512, 51.92100977964904 ], [ -0.171222664717465, 51.943485487608257 ], [ -0.170980810132729, 51.967310158631591 ], [ -0.077508302903723, 51.991447955981847 ], [ -0.063284150363558, 52.017291570172574 ], [ 0.120394879315168, 52.002887846717691 ], [ 0.227492261292859, 51.915033424010701 ], [ 0.237004621820083, 51.916260562755838 ], [ 0.236546159881935, 51.921664731074308 ], [ 0.246873898742351, 51.924615362506486 ], [ 0.263759244915531, 51.942217968548903 ], [ 0.275660567298843, 51.947384096531493 ], [ 0.274431791094499, 51.908710457529018 ], [ 0.351992280387599, 51.8487331215089 ], [ 0.304717020177008, 51.818644479752955 ], [ 0.334986742908178, 51.772633740485624 ], [ 0.333764386283544, 51.734888229467074 ], [ 0.298525716871191, 51.696913895508708 ], [ 0.298156148442708, 51.675338300693838 ], [ 0.263078087046678, 51.65353754281508 ], [ 0.310539896188912, 51.620238516130037 ], [ 0.302527716698716, 51.604658318432264 ], [ 0.374311136411956, 51.596483082546804 ], [ 0.437414195599425, 51.54797492133499 ], [ 0.525028345332465, 51.567255771841005 ], [ 0.534310426506557, 51.530985863077788 ], [ 0.546466755756472, 51.547792000516722 ], [ 0.785385117042133, 51.521360067375305 ], [ 0.868659993776846, 51.560674313475005 ], [ 0.971601847110241, 51.47505667793488 ], [ 0.887958578094171, 51.456671141141591 ], [ 0.904736796948595, 51.412944864587828 ], [ 0.950637868551332, 51.372638904903212 ], [ 1.011481262386025, 51.351720578881533 ], [ 1.023130123229006, 51.361457125629066 ], [ 1.016092297568715, 51.322281596043304 ], [ 0.963205848100915, 51.270115913736788 ], [ 0.925358218698047, 51.26117460017813 ], [ 0.922616362535458, 51.240556057696509 ], [ 0.89077560636365, 51.235501016468099 ], [ 0.88950916923866, 51.215295025764554 ], [ 0.817791603714838, 51.213447296325867 ], [ 0.724049376753121, 51.250745148507526 ], [ 0.686410000666172, 51.219686803526486 ], [ 0.832246123103272, 51.133948180499274 ], [ 0.85662324259767, 51.135153789698315 ], [ 0.863400985060385, 51.094512976048833 ], [ 0.849377736544242, 51.07551775229733 ], [ 0.717199228391411, 51.110146531210162 ], [ 0.687036141510825, 51.095104159380817 ], [ 0.644678005763234, 51.103715515436029 ], [ 0.565739802032754, 51.071298060752717 ], [ 0.510098193488452, 51.085098167891246 ], [ 0.5101546871084, 51.072955153456469 ], [ 0.468040385414875, 51.072952912686453 ], [ 0.415848680367993, 51.043914352689164 ], [ 0.334134473189618, 51.064462329106483 ], [ 0.259723524582213, 51.060528879594436 ], [ 0.236950059241899, 51.032187570581662 ], [ 0.1672284203062, 51.035750163940335 ], [ 0.150854761840912, 51.051791357724355 ], [ 0.12015621633154, 51.035714518621496 ], [ 0.053110168020492, 51.035562912963378 ], [ 0.016062157094593, 51.052845722873101 ], [ 0.023222546869921, 51.06980925566144 ], [ -0.047955615269384, 51.074367515119718 ], [ -0.087490386208033, 51.102250124694478 ], [ -0.195545091057334, 51.06010203208681 ], [ -0.206772827071453, 51.083456672791549 ], [ -0.247552490838353, 51.08112769539278 ], [ -0.26532890040313, 51.102076652275009 ], [ -0.298187175500093, 51.101909827068091 ], [ -0.280762261639793, 51.128833719528622 ], [ -0.3294915308091, 51.144827787141388 ], [ -0.340412070023168, 51.1791558597942 ], [ -0.413880768312903, 51.185370521982961 ], [ -0.425442900165342, 51.16099688444104 ], [ -0.385243149728056, 51.124477764797241 ], [ -0.40010100758199, 51.108045320506022 ], [ -0.4884147056993, 51.093932687299358 ], [ -0.543550216215983, 51.111718603948212 ], [ -0.559834535724478, 51.139347859598487 ], [ -0.680040427903165, 51.134720930121865 ], [ -0.716962158417028, 51.117596351164927 ], [ -0.690874660812216, 51.054808704863767 ], [ -0.764569998474403, 51.073595940792913 ], [ -0.772846417994427, 51.057496494720056 ], [ -0.849595709625772, 51.040941599942784 ], [ -0.842455614039732, 51.069896743350384 ], [ -0.917486638453975, 51.096243999904559 ], [ -0.963000370579442, 51.072577025995301 ], [ -0.968524715643039, 51.048795906631639 ], [ -0.955891164887438, 51.041242566017708 ], [ -0.978290312542815, 51.02640045689315 ], [ -1.069063013688165, 51.050703190102801 ], [ -1.047214516396888, 51.072558552069999 ], [ -1.062481765259231, 51.129333661915794 ], [ -1.094629742541011, 51.129672209123832 ], [ -1.102863398520433, 51.147270559679619 ], [ -1.06530966743504, 51.166224563744478 ], [ -1.07708638791491, 51.185287017206839 ], [ -1.035903930760331, 51.204652426616725 ], [ -1.157080123839424, 51.23175033497494 ], [ -1.160779421509032, 51.26459792136432 ], [ -1.129679538121601, 51.279657388798711 ], [ -1.144573222067721, 51.288309521326497 ], [ -1.377986977847004, 51.312710861643225 ], [ -1.472165089907222, 51.357682370062356 ], [ -1.555554578645034, 51.348137243957304 ], [ -1.576477337866836, 51.336975019824642 ], [ -1.573768907373597, 51.319431207290208 ], [ -1.602482759997021, 51.317733763861604 ], [ -1.661811908241972, 51.347592756121344 ], [ -1.672494002755126, 51.359761905093812 ], [ -1.660196674366981, 51.371865725306364 ], [ -1.678112832680217, 51.377760867447591 ], [ -1.841209264033729, 51.371351253654645 ], [ -1.970332138273146, 51.393029701699255 ], [ -1.92373476984801, 51.418190294833465 ], [ -1.920601773320118, 51.477082851286383 ], [ -1.83191003127949, 51.514753689963335 ], [ -1.843350870643621, 51.540395061758879 ], [ -1.971087181624978, 51.582755218362941 ], [ -2.008461399608012, 51.613778407982593 ], [ -2.077933287258614, 51.610156183050634 ], [ -2.127687298700105, 51.641581955091432 ], [ -2.112714411881932, 51.659579794136278 ], [ -2.124155783605401, 51.671256800118648 ], [ -2.117909952727472, 51.71172353669423 ], [ -2.05354480769511, 51.746386418851344 ], [ -2.065165439657639, 51.769307747072553 ], [ -2.049973108050603, 51.790893699489196 ], [ -2.057254468488766, 51.816065145980915 ], [ -2.102987562943969, 51.832217638778872 ], [ -2.097221623446469, 51.850204431797806 ], [ -2.075468499300499, 51.864156364872017 ], [ -1.997774861207147, 51.862832095281313 ], [ -1.986877677360324, 51.883510453389611 ], [ -2.011577996328071, 51.891152796889969 ], [ -2.013038105739786, 51.914978365476877 ], [ -1.975957402012612, 51.928912477185108 ], [ -1.950524699716063, 51.912721132885387 ], [ -1.920711902682011, 51.918548930252229 ], [ -1.92357876575138, 51.942825976860718 ], [ -1.901011307722571, 51.951350456424905 ], [ -1.877608674484803, 51.996282204003379 ], [ -1.836786338760016, 52.007471181661252 ], [ -1.831618278589423, 52.025894817736152 ], [ -1.7930395932123, 52.016393238708005 ], [ -1.769879817091271, 51.986231455105361 ], [ -1.722421749026175, 52.007707017198086 ], [ -1.593069573129947, 51.97361614775874 ], [ -1.54203269101366, 51.981970121859852 ], [ -1.511193147956591, 52.006121347774545 ], [ -1.440457101091218, 52.012549845909668 ], [ -1.501069514768872, 52.064968146449637 ], [ -1.481982107274914, 52.075674663975981 ], [ -1.471333746442793, 52.112489045964551 ], [ -1.416036056769382, 52.153585036827153 ], [ -1.318419475749866, 52.180932443334036 ], [ -1.294273989802888, 52.227990931679862 ], [ -1.261588801948701, 52.212507134715615 ], [ -1.213940555826298, 52.217144293055433 ] ] ] } },
{ "type": "Feature", "properties": { "rbd_name": "South East" }, "geometry": { "type": "Polygon", "coordinates": [ [ [ -1.685667299041451, 50.625065562939717 ], [ -1.70289388161884, 50.736842021572315 ], [ -1.687182673763409, 50.76299168958689 ], [ -1.701425559106472, 50.772651100724794 ], [ -1.694241158165803, 50.787020671972151 ], [ -1.729619904501287, 50.801945696055917 ], [ -1.713175226347504, 50.822504009139244 ], [ -1.727190965083229, 50.853561741737771 ], [ -1.651440339762891, 50.915038854635498 ], [ -1.651990841623871, 50.936623929686775 ], [ -1.718668624551507, 50.971422201518955 ], [ -1.702732998303901, 51.013646439575496 ], [ -1.742432844346573, 51.052326779861296 ], [ -1.711407789851276, 51.108904832596295 ], [ -1.662681782771581, 51.130805144780325 ], [ -1.62590647289433, 51.17205668912932 ], [ -1.659204964540113, 51.214870212468469 ], [ -1.646654083389868, 51.264738078646786 ], [ -1.551238401225361, 51.349020002791896 ], [ -1.472165104164799, 51.357682379118309 ], [ -1.37798697772548, 51.312710870634454 ], [ -1.250378286674356, 51.307467937158556 ], [ -1.129654073316925, 51.281006003678733 ], [ -1.160779421345337, 51.264597930355173 ], [ -1.1570801236752, 51.231750343965821 ], [ -1.035903930572673, 51.204652435607372 ], [ -1.077086387735394, 51.185287026197621 ], [ -1.065309667253357, 51.166224572735274 ], [ -1.102863412640489, 51.147270568780129 ], [ -1.094629742365258, 51.129672218114749 ], [ -1.062481779365859, 51.129333671021143 ], [ -1.047214530483372, 51.072558561177154 ], [ -1.069063027772394, 51.050703199207362 ], [ -0.978290326601796, 51.026400466008518 ], [ -0.955891164685386, 51.041242575008376 ], [ -0.968524729706801, 51.048795915748208 ], [ -0.963000370378541, 51.072577034985962 ], [ -0.917486638244078, 51.096244008895034 ], [ -0.842455628084805, 51.069896752481945 ], [ -0.84959570940315, 51.040941608933132 ], [ -0.772846432021946, 51.057496503859873 ], [ -0.764569998235047, 51.073595949782955 ], [ -0.690874660558751, 51.054808713853546 ], [ -0.716962172451386, 51.117596360311424 ], [ -0.680040441935275, 51.134720939272754 ], [ -0.559834535444799, 51.139347868587656 ], [ -0.543550215933421, 51.111718612937374 ], [ -0.488414705406227, 51.093932696288334 ], [ -0.400101021550038, 51.108045329689958 ], [ -0.385243163697999, 51.124477773982953 ], [ -0.425442914154242, 51.160996893622048 ], [ -0.413880782306745, 51.185370531165361 ], [ -0.34041208400035, 51.179155868985255 ], [ -0.329491544773867, 51.144827796333665 ], [ -0.280762275589991, 51.128833728726605 ], [ -0.298187189445822, 51.101909836264007 ], [ -0.265328900066712, 51.10207666126297 ], [ -0.247552504767737, 51.081127704594635 ], [ -0.20677284099331, 51.083456681998157 ], [ -0.195545104970038, 51.060102041294698 ], [ -0.08749040011135, 51.102250133915064 ], [ -0.047955629156501, 51.074367524344844 ], [ 0.023222547261836, 51.069809264647965 ], [ 0.016062143226741, 51.052845732105673 ], [ 0.053110154165198, 51.035562922200207 ], [ 0.120156202489777, 51.035714527866141 ], [ 0.150854748000677, 51.051791366972616 ], [ 0.16722840647397, 51.035750173190429 ], [ 0.23695005967462, 51.032187579566973 ], [ 0.259723510761541, 51.060528888855309 ], [ 0.334134459382947, 51.064462338375989 ], [ 0.4158486808355, 51.043914361673323 ], [ 0.468040385892971, 51.072952921670229 ], [ 0.510154673335193, 51.07295516274629 ], [ 0.510098193974901, 51.085098176874716 ], [ 0.565739802529736, 51.071298069735811 ], [ 0.644677992008681, 51.103715524741403 ], [ 0.68703614203173, 51.095104168363022 ], [ 0.717199228918442, 51.110146540192119 ], [ 0.851543782370987, 51.075914632529965 ], [ 0.848890381269985, 51.090820204869956 ], [ 0.863400985615443, 51.094512985029688 ], [ 0.856623228877666, 51.135153799028075 ], [ 0.832246123653068, 51.133948189480307 ], [ 0.717425615486174, 51.211325362141601 ], [ 0.701748281774048, 51.21258797858453 ], [ 0.68839835059386, 51.21694291060691 ], [ 0.686409986886535, 51.219686812836997 ], [ 0.724049377284137, 51.250745157489213 ], [ 0.817791589964153, 51.213447305651414 ], [ 0.889509169801194, 51.215295034745019 ], [ 0.890775606926838, 51.235501025448514 ], [ 0.922616348798626, 51.240556067034134 ], [ 0.92535821926849, 51.261174609158232 ], [ 0.96320583436394, 51.270115923079139 ], [ 1.016092298158121, 51.322281605022575 ], [ 1.023130109477968, 51.361457134978586 ], [ 1.011481248635391, 51.351720588229689 ], [ 0.950575986725872, 51.372666556768607 ], [ 0.904736783157811, 51.412944873923998 ], [ 0.887958563719956, 51.456671141495882 ], [ 1.304206408182825, 51.546762067180069 ], [ 1.262411368635651, 51.511198461496654 ], [ 1.271774442642222, 51.473418736470599 ], [ 1.387378846202231, 51.455575979956336 ], [ 1.409580800540368, 51.424309589105867 ], [ 1.468292468638515, 51.395553023712914 ], [ 1.484976113900337, 51.327851737916021 ], [ 1.559336172384449, 51.310378313994896 ], [ 1.600651424268356, 51.244571500544374 ], [ 1.531753926262837, 51.161214518459474 ], [ 1.445796047486317, 51.161704898606764 ], [ 1.338200616127107, 51.096928644309521 ], [ 1.054846089228414, 51.035614761241398 ], [ 1.013746975730552, 50.998249634863491 ], [ 1.013573612123829, 50.924679200800597 ], [ 0.992444179200392, 50.89890174852799 ], [ 0.775591645274093, 50.903290349927573 ], [ 0.673369915568756, 50.853795279832703 ], [ 0.38141407487528, 50.799675737072377 ], [ 0.263759638842501, 50.718950611474227 ], [ 0.19528971907752, 50.720280397208299 ], [ -0.173096543211013, 50.805606436991503 ], [ -0.26460446743108, 50.80914920833375 ], [ -0.70252566512886, 50.750249826123692 ], [ -0.762480176311412, 50.691250172823722 ], [ -0.843302825398767, 50.685865928339211 ], [ -1.277271398174956, 50.560211092348482 ], [ -1.31917953599688, 50.560943122724908 ], [ -1.50740575732684, 50.646382049384641 ], [ -1.685667299041451, 50.625065562939717 ] ] ] } },
{ "type": "Feature", "properties": { "rbd_name": "Anglian" }, "geometry": { "type": "Polygon", "coordinates": [ [ [ -1.26664134367818, 51.949559231403668 ], [ -1.150039573372077, 51.998675374412741 ], [ -1.221368506042803, 52.043223539734385 ], [ -1.194528921505307, 52.076309319950269 ], [ -1.205191719098273, 52.092115345151136 ], [ -1.195228106516546, 52.118570578761314 ], [ -1.152080595860404, 52.121864590946075 ], [ -1.131954650993268, 52.142846445850402 ], [ -1.135981376803339, 52.161307062588115 ], [ -1.171718310551397, 52.165609033485282 ], [ -1.17061138696244, 52.185830235420326 ], [ -1.211180420625072, 52.207685883590273 ], [ -1.218023605178476, 52.234703016726449 ], [ -1.182570562614977, 52.251544850312513 ], [ -1.189525573247372, 52.271821538446865 ], [ -1.164335500980056, 52.286480341076448 ], [ -1.200431511702886, 52.317297614289295 ], [ -1.099241827140762, 52.351632461760978 ], [ -1.067211792870427, 52.338797387656683 ], [ -1.04868531655816, 52.381354354063227 ], [ -1.021599777498701, 52.377087627802943 ], [ -0.982916502890304, 52.398338258871497 ], [ -1.020874121272036, 52.409896649057565 ], [ -0.98689261212528, 52.417252368466762 ], [ -0.991709910707862, 52.431678093040951 ], [ -1.050795065602119, 52.437111677638896 ], [ -1.066254513537612, 52.453866892971988 ], [ -1.061276210574669, 52.514961185494599 ], [ -0.923939702950982, 52.587063048009227 ], [ -0.936949532786087, 52.598418264110705 ], [ -0.920378489463362, 52.641870688069517 ], [ -0.876143863095241, 52.637863391631129 ], [ -0.825989256866138, 52.662100268922543 ], [ -0.824040658165139, 52.679611676174929 ], [ -0.777772594327782, 52.667905952883928 ], [ -0.678622960038773, 52.694711917021365 ], [ -0.677466990272114, 52.734286176615512 ], [ -0.700502003656776, 52.755188148157544 ], [ -0.690670984315155, 52.786545534937041 ], [ -0.724568290526307, 52.793657251607392 ], [ -0.717891864038853, 52.821066313220129 ], [ -0.746586814981754, 52.851905014462723 ], [ -0.734276151672655, 52.867928773312116 ], [ -0.754535548483305, 52.886123900238111 ], [ -0.747258759906599, 52.93190100995605 ], [ -0.792970068121561, 52.9476797305338 ], [ -0.756932334156579, 52.996688311637186 ], [ -0.807534514770683, 53.013422445515864 ], [ -0.760206162485466, 53.052493189127084 ], [ -0.778713441235163, 53.079076075855873 ], [ -0.724029957285957, 53.115487834753992 ], [ -0.720468978781802, 53.134777258188869 ], [ -0.662366358092569, 53.152567531654647 ], [ -0.672566535114791, 53.185493726973043 ], [ -0.706119880303935, 53.189458528076912 ], [ -0.719825423603893, 53.206686613518315 ], [ -0.68546522694901, 53.253057870723666 ], [ -0.744271639864441, 53.292345873227816 ], [ -0.697914160771069, 53.287354334801705 ], [ -0.681157813314044, 53.319981378888151 ], [ -0.707944869495624, 53.35263596950783 ], [ -0.746336713938198, 53.349899126890527 ], [ -0.739193937218086, 53.362858306189217 ], [ -0.763279497416188, 53.387381101305202 ], [ -0.761163193670182, 53.408483701534756 ], [ -0.683790623443022, 53.414261251163126 ], [ -0.62886809226606, 53.382768324390241 ], [ -0.586353405626724, 53.394856269225336 ], [ -0.55671340787929, 53.337418819001634 ], [ -0.340493108060739, 53.374611840813174 ], [ -0.239341471229403, 53.366869810768733 ], [ -0.219364746897305, 53.377361253782141 ], [ -0.228581576200926, 53.390533625055262 ], [ -0.145912682690781, 53.389727810412346 ], [ -0.09608956610904, 53.410969050363718 ], [ -0.067809314505801, 53.387590173384851 ], [ -0.113943083033069, 53.364504523016798 ], [ -0.108761926725294, 53.328628491805198 ], [ -0.062059093721341, 53.298944326468508 ], [ 0.005414066809095, 53.32974418758436 ], [ -0.023328478374896, 53.341461648046781 ], [ -0.018742859604646, 53.359365923768706 ], [ 0.052544396049836, 53.372994960901387 ], [ 0.08071343351504, 53.411165368591682 ], [ 0.102135618781135, 53.403148356969432 ], [ 0.160593571219932, 53.44346034741298 ], [ 0.224233779665931, 53.454286745142838 ], [ 0.365953355356675, 53.251830012036024 ], [ 0.383020374578697, 53.13977633235384 ], [ 0.42201841209861, 53.039507736659552 ], [ 0.481749727972905, 53.031056654828163 ], [ 0.573000596176206, 53.070660186873916 ], [ 0.630030024917983, 53.010810639147046 ], [ 0.977088706285364, 53.002701194876863 ], [ 1.316109245376234, 52.94893579865127 ], [ 1.434401553677085, 52.904795168307274 ], [ 1.626469208126412, 52.801101462803565 ], [ 1.721581614714182, 52.740333418566323 ], [ 1.74286821069265, 52.68984733106231 ], [ 1.831645318351605, 52.629713502237962 ], [ 1.838206353937234, 52.582655889412216 ], [ 1.806828653979062, 52.547924711729593 ], [ 1.844526534171361, 52.497531742681161 ], [ 1.761147503539131, 52.433965409700043 ], [ 1.700600654973457, 52.307404681005352 ], [ 1.659748008518634, 52.276780773397682 ], [ 1.650702999334077, 52.186823473977128 ], [ 1.619948102940807, 52.125322008831233 ], [ 1.625861009248695, 52.094122316413966 ], [ 1.502994873588436, 52.042466947602527 ], [ 1.395364359132096, 51.944396085729984 ], [ 1.423380345203787, 51.900498477847734 ], [ 1.371466462139386, 51.838317042148383 ], [ 1.413294734103072, 51.79853481250958 ], [ 1.429408680078255, 51.757984775772542 ], [ 1.49737414834804, 51.74620023593755 ], [ 1.578895339388958, 51.79745945511479 ], [ 1.609779538424185, 51.775326767936143 ], [ 1.522315063255483, 51.687105608318646 ], [ 1.459413892755187, 51.670975257839672 ], [ 1.436961294947019, 51.623728860694392 ], [ 1.381425759160214, 51.606885244116668 ], [ 1.304206408182825, 51.546762067180069 ], [ 0.971601847110241, 51.47505667793488 ], [ 0.868659993776846, 51.560674313475005 ], [ 0.782447954007171, 51.521187005841718 ], [ 0.54646675625819, 51.547792009499233 ], [ 0.542634386352345, 51.534681849677675 ], [ 0.534732058625449, 51.531048715310774 ], [ 0.528807037134973, 51.53185114065721 ], [ 0.532035291638252, 51.563507407531652 ], [ 0.497069458435521, 51.570552273922715 ], [ 0.421827439041802, 51.553244077112218 ], [ 0.374311122456334, 51.59648309182225 ], [ 0.302527717153318, 51.604658327416296 ], [ 0.310539882212909, 51.620238525398129 ], [ 0.262988572325149, 51.651740709782224 ], [ 0.298924141739176, 51.676222553008898 ], [ 0.298525702869564, 51.69691390477557 ], [ 0.333764372277771, 51.734888238738144 ], [ 0.334986743371968, 51.772633749469179 ], [ 0.304717006139742, 51.818644489020826 ], [ 0.346401463629364, 51.838952828270969 ], [ 0.34869346423919, 51.855093941595037 ], [ 0.27443177702339, 51.908710466793544 ], [ 0.275660553670988, 51.947384114779943 ], [ 0.218864088720925, 51.916994938501396 ], [ 0.20349838240651, 51.944710556647507 ], [ 0.180238364231248, 51.945143629523564 ], [ 0.154980163273279, 51.979779452098796 ], [ 0.099455104809797, 52.006859872265501 ], [ -0.065507425359684, 52.016428914288966 ], [ -0.07750831707395, 51.991447965205104 ], [ -0.170980809766864, 51.96731016761774 ], [ -0.17122266435196, 51.943485496594462 ], [ -0.230305155124099, 51.921009788635544 ], [ -0.236416186064238, 51.908122046205868 ], [ -0.212057280830778, 51.886173948394635 ], [ -0.238689319972937, 51.873987002027143 ], [ -0.365222298450765, 51.949935983371645 ], [ -0.479670959732337, 51.943377070977178 ], [ -0.486062593683538, 51.926375502211968 ], [ -0.552652328425885, 51.890797415224128 ], [ -0.534368073524641, 51.872138487135615 ], [ -0.550596107680277, 51.841768000265404 ], [ -0.607912927637056, 51.842460246731143 ], [ -0.603237539252124, 51.829367042743627 ], [ -0.623136837859019, 51.819261448557747 ], [ -0.663241916419431, 51.836807913819442 ], [ -0.661217785839738, 51.856116637824336 ], [ -0.684088985075663, 51.868513152493485 ], [ -0.777597976557023, 51.874916529776939 ], [ -0.776347247035048, 51.894234948757472 ], [ -0.745512170897257, 51.905599105508962 ], [ -0.773780931408157, 51.935118732027973 ], [ -0.84713424641516, 51.882361773920771 ], [ -0.879916536343359, 51.878632266091991 ], [ -0.947782366301341, 51.896341916072927 ], [ -0.953228744136611, 51.912125071406223 ], [ -1.010811560705989, 51.904980506428217 ], [ -1.074444425403417, 51.920782874181555 ], [ -1.119643462139589, 51.951699061929588 ], [ -1.212281595425239, 51.937969498530926 ], [ -1.26664134367818, 51.949559231403668 ] ] ] } }
]
}
